[{"OBJECT_NAME":"ORBITER SN3","OBJECT_ID":"2023-084AE","EPOCH":"2026-03-09T23:12:21.976128","MEAN_MOTION":15.32943891,"ECCENTRICITY":0.00075889,"INCLINATION":97.61,"RA_OF_ASC_NODE":206.6768,"ARG_OF_PERICENTER":331.7947,"MEAN_ANOMALY":28.2883,"EPHEMERIS_TYPE":0,"CLASSIFICATION_TYPE":"U","NORAD_CAT_ID":56960,"ELEMENT_SET_NO":999,"REV_AT_EPOCH":15228,"BSTAR":0.00032835432,"MEAN_MOTION_DOT":0.00010378,"MEAN_MOTION_DDOT":0},{"OBJECT_NAME":"OBJECT K","OBJECT_ID":"2025-155K","EPOCH":"2026-03-09T22:07:25.197888","MEAN_MOTION":15.34284916,"ECCENTRICITY":0.00088839,"INCLINATION":97.4419,"RA_OF_ASC_NODE":38.2399,"ARG_OF_PERICENTER":139.4299,"MEAN_ANOMALY":220.7607,"EPHEMERIS_TYPE":0,"CLASSIFICATION_TYPE":"U","NORAD_CAT_ID":64885,"ELEMENT_SET_NO":999,"REV_AT_EPOCH":6566,"BSTAR":0.00076172732,"MEAN_MOTION_DOT":0.00025288,"MEAN_MOTION_DDOT":0}]
